{
  "type": "FeatureCollection",
  "features": [
    {
      "type": "Feature",
      "properties": {
        "norad_id": 36828,
        "name": "BEIDOU-2 IGSO-1 (C06)",
        "group": "beidou",
        "lat": -19.255465725052932,
        "lon": 150.08486371416905,
        "alt_km": 35895.18600860947,
        "timestamp": "2025-12-10T20:49:52.818519+00:00",
        "meta_object_name": "BEIDOU-2 IGSO-1 (C06)",
        "meta_object_id": "2010-036A",
        "meta_epoch": "2025-12-09T10:39:31.929984",
        "meta_mean_motion": 1.00277193,
        "meta_eccentricity": 0.0051253,
        "meta_inclination": 54.2848,
        "meta_ra_of_asc_node": 164.6772,
        "meta_arg_of_pericenter": 215.9067,
        "meta_mean_anomaly": 325.5876,
        "meta_ephemeris_type": 0,
        "meta_classification_type": "U",
        "meta_norad_cat_id": 36828,
        "meta_element_set_no": 999,
        "meta_rev_at_epoch": 5619,
        "meta_bstar": 0,
        "meta_mean_motion_dot": -6.8e-07,
        "meta_mean_motion_ddot": 0,
        "tle_line1": "1 36828U 10036A   25343.44411956 -.00000068  00000+0  00000+0 0  9991",
        "tle_line2": "2 36828  54.2848 164.6772 0051253 215.9067 325.5876  1.00277193 56196"
      },
      "geometry": {
        "type": "Point",
        "coordinates": [
          150.08486371416905,
          -19.255465725052932
        ]
      }
    },
    {
      "type": "Feature",
      "properties": {
        "norad_id": 37210,
        "name": "BEIDOU-2 G4 (C04)",
        "group": "beidou",
        "lat": 2.679043930545252,
        "lon": -167.69614817501315,
        "alt_km": 35768.31864060577,
        "timestamp": "2025-12-10T20:49:52.818541+00:00",
        "meta_object_name": "BEIDOU-2 G4 (C04)",
        "meta_object_id": "2010-057A",
        "meta_epoch": "2025-12-10T13:40:51.818016",
        "meta_mean_motion": 1.00271324,
        "meta_eccentricity": 0.00109766,
        "meta_inclination": 3.1794,
        "meta_ra_of_asc_node": 69.9408,
        "meta_arg_of_pericenter": 190.1899,
        "meta_mean_anomaly": 184.702,
        "meta_ephemeris_type": 0,
        "meta_classification_type": "U",
        "meta_norad_cat_id": 37210,
        "meta_element_set_no": 999,
        "meta_rev_at_epoch": 5540,
        "meta_bstar": 0,
        "meta_mean_motion_dot": -1.08e-06,
        "meta_mean_motion_ddot": 0,
        "tle_line1": "1 37210U 10057A   25344.57004419 -.00000108  00000+0  00000+0 0  9992",
        "tle_line2": "2 37210   3.1794  69.9408 0010976 190.1899 184.7020  1.00271324 55401"
      },
      "geometry": {
        "type": "Point",
        "coordinates": [
          -167.69614817501315,
          2.679043930545252
        ]
      }
    },
    {
      "type": "Feature",
      "properties": {
        "norad_id": 37256,
        "name": "BEIDOU-2 IGSO-2 (C07)",
        "group": "beidou",
        "lat": -32.137025563056305,
        "lon": 128.70102048913196,
        "alt_km": 35581.892772397914,
        "timestamp": "2025-12-10T20:49:52.818556+00:00",
        "meta_object_name": "BEIDOU-2 IGSO-2 (C07)",
        "meta_object_id": "2010-068A",
        "meta_epoch": "2025-12-03T17:22:36.027840",
        "meta_mean_motion": 1.0028872,
        "meta_eccentricity": 0.00492449,
        "meta_inclination": 47.9042,
        "meta_ra_of_asc_node": 274.2614,
        "meta_arg_of_pericenter": 216.1411,
        "meta_mean_anomaly": 310.24,
        "meta_ephemeris_type": 0,
        "meta_classification_type": "U",
        "meta_norad_cat_id": 37256,
        "meta_element_set_no": 999,
        "meta_rev_at_epoch": 5483,
        "meta_bstar": 0,
        "meta_mean_motion_dot": -2.25e-06,
        "meta_mean_motion_ddot": 0,
        "tle_line1": "1 37256U 10068A   25337.72402810 -.00000225  00000+0  00000+0 0  9990",
        "tle_line2": "2 37256  47.9042 274.2614 0049244 216.1411 310.2400  1.00288720 54834"
      },
      "geometry": {
        "type": "Point",
        "coordinates": [
          128.70102048913196,
          -32.137025563056305
        ]
      }
    },
    {
      "type": "Feature",
      "properties": {
        "norad_id": 37384,
        "name": "BEIDOU-2 IGSO-3 (C08)",
        "group": "beidou",
        "lat": 61.2407506525547,
        "lon": 147.71662360717679,
        "alt_km": 35779.17607571947,
        "timestamp": "2025-12-10T20:49:52.818570+00:00",
        "meta_object_name": "BEIDOU-2 IGSO-3 (C08)",
        "meta_object_id": "2011-013A",
        "meta_epoch": "2025-12-07T14:00:04.361184",
        "meta_mean_motion": 1.00271435,
        "meta_eccentricity": 0.0035334,
        "meta_inclination": 62.1366,
        "meta_ra_of_asc_node": 41.9657,
        "meta_arg_of_pericenter": 187.0632,
        "meta_mean_anomaly": 165.2408,
        "meta_ephemeris_type": 0,
        "meta_classification_type": "U",
        "meta_norad_cat_id": 37384,
        "meta_element_set_no": 999,
        "meta_rev_at_epoch": 5373,
        "meta_bstar": 0,
        "meta_mean_motion_dot": -1.91e-06,
        "meta_mean_motion_ddot": 0,
        "tle_line1": "1 37384U 11013A   25341.58338381 -.00000191  00000+0  00000+0 0  9995",
        "tle_line2": "2 37384  62.1366  41.9657 0035334 187.0632 165.2408  1.00271435 53735"
      },
      "geometry": {
        "type": "Point",
        "coordinates": [
          147.71662360717679,
          61.2407506525547
        ]
      }
    },
    {
      "type": "Feature",
      "properties": {
        "norad_id": 37763,
        "name": "BEIDOU-2 IGSO-4 (C09)",
        "group": "beidou",
        "lat": -30.84312294343463,
        "lon": 142.1814646016808,
        "alt_km": 35785.235662272185,
        "timestamp": "2025-12-10T20:49:52.818583+00:00",
        "meta_object_name": "BEIDOU-2 IGSO-4 (C09)",
        "meta_object_id": "2011-038A",
        "meta_epoch": "2025-12-10T12:04:03.489024",
        "meta_mean_motion": 1.00284678,
        "meta_eccentricity": 0.01490344,
        "meta_inclination": 54.5829,
        "meta_ra_of_asc_node": 167.3658,
        "meta_arg_of_pericenter": 230.2355,
        "meta_mean_anomaly": 317.2212,
        "meta_ephemeris_type": 0,
        "meta_classification_type": "U",
        "meta_norad_cat_id": 37763,
        "meta_element_set_no": 999,
        "meta_rev_at_epoch": 5275,
        "meta_bstar": 0,
        "meta_mean_motion_dot": 3.6e-07,
        "meta_mean_motion_ddot": 0,
        "tle_line1": "1 37763U 11038A   25344.50281816  .00000036  00000+0  00000+0 0  9995",
        "tle_line2": "2 37763  54.5829 167.3658 0149034 230.2355 317.2212  1.00284678 52751"
      },
      "geometry": {
        "type": "Point",
        "coordinates": [
          142.1814646016808,
          -30.84312294343463
        ]
      }
    },
    {
      "type": "Feature",
      "properties": {
        "norad_id": 37948,
        "name": "BEIDOU-2 IGSO-5 (C10)",
        "group": "beidou",
        "lat": -22.576648023651007,
        "lon": 115.79780990649468,
        "alt_km": 35328.28787402944,
        "timestamp": "2025-12-10T20:49:52.818595+00:00",
        "meta_object_name": "BEIDOU-2 IGSO-5 (C10)",
        "meta_object_id": "2011-073A",
        "meta_epoch": "2025-12-09T19:08:31.399296",
        "meta_mean_motion": 1.00291503,
        "meta_eccentricity": 0.01103013,
        "meta_inclination": 48.0257,
        "meta_ra_of_asc_node": 273.8934,
        "meta_arg_of_pericenter": 222.2261,
        "meta_mean_anomaly": 322.5967,
        "meta_ephemeris_type": 0,
        "meta_classification_type": "U",
        "meta_norad_cat_id": 37948,
        "meta_element_set_no": 999,
        "meta_rev_at_epoch": 5123,
        "meta_bstar": 0,
        "meta_mean_motion_dot": -2.09e-06,
        "meta_mean_motion_ddot": 0,
        "tle_line1": "1 37948U 11073A   25343.79758564 -.00000209  00000+0  00000+0 0  9991",
        "tle_line2": "2 37948  48.0257 273.8934 0110301 222.2261 322.5967  1.00291503 51234"
      },
      "geometry": {
        "type": "Point",
        "coordinates": [
          115.79780990649468,
          -22.576648023651007
        ]
      }
    },
    {
      "type": "Feature",
      "properties": {
        "norad_id": 38091,
        "name": "BEIDOU-2 G5 (C05)",
        "group": "beidou",
        "lat": 1.100876930713102,
        "lon": 91.10488295147977,
        "alt_km": 35832.768929977676,
        "timestamp": "2025-12-10T20:49:52.818607+00:00",
        "meta_object_name": "BEIDOU-2 G5 (C05)",
        "meta_object_id": "2012-008A",
        "meta_epoch": "2025-12-10T16:02:24.737568",
        "meta_mean_motion": 1.0027475,
        "meta_eccentricity": 0.00125684,
        "meta_inclination": 3.1043,
        "meta_ra_of_asc_node": 70.7102,
        "meta_arg_of_pericenter": 226.6233,
        "meta_mean_anomaly": 81.6713,
        "meta_ephemeris_type": 0,
        "meta_classification_type": "U",
        "meta_norad_cat_id": 38091,
        "meta_element_set_no": 999,
        "meta_rev_at_epoch": 5047,
        "meta_bstar": 0,
        "meta_mean_motion_dot": 6e-07,
        "meta_mean_motion_ddot": 0,
        "tle_line1": "1 38091U 12008A   25344.66834187  .00000060  00000+0  00000+0 0  9997",
        "tle_line2": "2 38091   3.1043  70.7102 0012568 226.6233  81.6713  1.00274750 50475"
      },
      "geometry": {
        "type": "Point",
        "coordinates": [
          91.10488295147977,
          1.100876930713102
        ]
      }
    }
  ]
}